{"type": "FeatureCollection", "features": [ {"type": "Feature", "properties": {"norad_id": 30940, "name": "FENGYUN 1C DEB", "group": "fengyun-1c-debris", "lat": 48.165368451175276, "lon": 167.12726118508394, "alt_km": 865.6299964468526, "timestamp": "2025-12-02T13:52:17.541762+00:00", "meta": {"OBJECT_NAME": "FENGYUN 1C DEB", "OBJECT_ID": "1999-025BAE", "EPOCH": "2025-11-23T13:17:29.751648", "MEAN_MOTION": 14.0826145, "ECCENTRICITY": 0.004197, "INCLINATION": 98.622, "RA_OF_ASC_NODE": 328.746, "ARG_OF_PERICENTER": 57.4359, "MEAN_ANOMALY": 68.2923, "EPHEMERIS_TYPE": 0, "CLASSIFICATION_TYPE": "U", "NORAD_CAT_ID": 30940, "ELEMENT_SET_NO": 999, "REV_AT_EPOCH": 95862, "BSTAR": 0.00040929136, "MEAN_MOTION_DOT": 6.64e-06, "MEAN_MOTION_DDOT": 0}, "tle": {"line1": "1 30940U 99025BAE 25327.55381657  .00000664  00000+0  40929-3 0  9992", "line2": "2 30940  98.6220 328.7460 0041970  57.4359  68.2923 14.08261450958620"}}, "geometry": {"type": "Point", "coordinates": [167.12726118508394, 48.165368451175276]}}, {"type": "Feature", "properties": {"norad_id": 30941, "name": "FENGYUN 1C DEB", "group": "fengyun-1c-debris", "lat": 58.78597670099513, "lon": 27.947863700283445, "alt_km": 800.6615121467676, "timestamp": "2025-12-02T13:52:17.541772+00:00", "meta": {"OBJECT_NAME": "FENGYUN 1C DEB", "OBJECT_ID": "1999-025BAF", "EPOCH": "2025-12-01T13:49:03.246528", "MEAN_MOTION": 14.30862739, "ECCENTRICITY": 0.00349916, "INCLINATION": 98.5501, "RA_OF_ASC_NODE": 192.5869, "ARG_OF_PERICENTER": 348.4723, "MEAN_ANOMALY": 11.5655, "EPHEMERIS_TYPE": 0, "CLASSIFICATION_TYPE": "U", "NORAD_CAT_ID": 30941, "ELEMENT_SET_NO": 999, "REV_AT_EPOCH": 96466, "BSTAR": 0.0018784871, "MEAN_MOTION_DOT": 4.921e-05, "MEAN_MOTION_DDOT": 0}, "tle": {"line1": "1 30941U 99025BAF 25335.57573202  .00004921  00000+0  18785-2 0  9997", "line2": "2 30941  98.5501 192.5869 0034991 348.4723  11.5655 14.30862739964661"}}, "geometry": {"type": "Point", "coordinates": [27.947863700283445, 58.78597670099513]}}, {"type": "Feature", "properties": {"norad_id": 30942, "name": "FENGYUN 1C DEB", "group": "fengyun-1c-debris", "lat": -4.653919218272039, "lon": -24.19075611434199, "alt_km": 921.7766156298576, "timestamp": "2025-12-02T13:52:17.541783+00:00", "meta": {"OBJECT_NAME": "FENGYUN 1C DEB", "OBJECT_ID": "1999-025BAG", "EPOCH": "2025-12-02T05:42:04.280256", "MEAN_MOTION": 14.14823105, "ECCENTRICITY": 0.01377396, "INCLINATION": 98.6797, "RA_OF_ASC_NODE": 334.7656, "ARG_OF_PERICENTER": 136.1477, "MEAN_ANOMALY": 287.3223, "EPHEMERIS_TYPE": 0, "CLASSIFICATION_TYPE": "U", "NORAD_CAT_ID": 30942, "ELEMENT_SET_NO": 999, "REV_AT_EPOCH": 96496, "BSTAR": 0.00026236439, "MEAN_MOTION_DOT": 5.13e-06, "MEAN_MOTION_DDOT": 0}, "tle": {"line1": "1 30942U 99025BAG 25336.23754954  .00000513  00000+0  26236-3 0  9991", "line2": "2 30942  98.6797 334.7656 0137739 136.1477 287.3223 14.14823105964969"}}, "geometry": {"type": "Point", "coordinates": [-24.19075611434199, -4.653919218272039]}}, {"type": "Feature", "properties": {"norad_id": 30943, "name": "FENGYUN 1C DEB", "group": "fengyun-1c-debris", "lat": -7.925125178129821, "lon": -7.947910617120534, "alt_km": 889.3799330879374, "timestamp": "2025-12-02T13:52:17.541792+00:00", "meta": {"OBJECT_NAME": "FENGYUN 1C DEB", "OBJECT_ID": "1999-025BAH", "EPOCH": "2025-12-02T07:04:14.122560", "MEAN_MOTION": 14.0447432, "ECCENTRICITY": 0.00510709, "INCLINATION": 98.7986, "RA_OF_ASC_NODE": 350.5421, "ARG_OF_PERICENTER": 94.336, "MEAN_ANOMALY": 266.3645, "EPHEMERIS_TYPE": 0, "CLASSIFICATION_TYPE": "U", "NORAD_CAT_ID": 30943, "ELEMENT_SET_NO": 999, "REV_AT_EPOCH": 95595, "BSTAR": 0.00019005127, "MEAN_MOTION_DOT": 2.64e-06, "MEAN_MOTION_DDOT": 0}, "tle": {"line1": "1 30943U 99025BAH 25336.29460790  .00000264  00000+0  19005-3 0  9999", "line2": "2 30943  98.7986 350.5421 0051070  94.3360 266.3645 14.04474320955950"}}, "geometry": {"type": "Point", "coordinates": [-7.947910617120534, -7.925125178129821]}}, {"type": "Feature", "properties": {"norad_id": 30944, "name": "FENGYUN 1C DEB", "group": "fengyun-1c-debris", "lat": -43.600077030730674, "lon": -156.81121252208897, "alt_km": 728.3310290531354, "timestamp": "2025-12-02T13:52:17.541803+00:00", "meta": {"OBJECT_NAME": "FENGYUN 1C DEB", "OBJECT_ID": "1999-025BAJ", "EPOCH": "2025-11-30T22:00:05.507424", "MEAN_MOTION": 14.52412926, "ECCENTRICITY": 0.01490924, "INCLINATION": 98.8521, "RA_OF_ASC_NODE": 29.9716, "ARG_OF_PERICENTER": 136.216, "MEAN_ANOMALY": 45.1058, "EPHEMERIS_TYPE": 0, "CLASSIFICATION_TYPE": "U", "NORAD_CAT_ID": 30944, "ELEMENT_SET_NO": 999, "REV_AT_EPOCH": 98904, "BSTAR": 0.00019021363, "MEAN_MOTION_DOT": 8.39e-06, "MEAN_MOTION_DDOT": 0}, "tle": {"line1": "1 30944U 99025BAJ 25334.91673041  .00000839  00000+0  19021-3 0  9998", "line2": "2 30944  98.8521  29.9716 0149092 136.2160  45.1058 14.52412926989042"}}, "geometry": {"type": "Point", "coordinates": [-156.81121252208897, -43.600077030730674]}}, {"type": "Feature", "properties": {"norad_id": 30945, "name": "FENGYUN 1C DEB", "group": "fengyun-1c-debris", "lat": 79.72148189707003, "lon": -81.39278705922894, "alt_km": 764.6434807017376, "timestamp": "2025-12-02T13:52:17.541813+00:00", "meta": {"OBJECT_NAME": "FENGYUN 1C DEB", "OBJECT_ID": "1999-025BAK", "EPOCH": "2025-12-02T00:17:47.503104", "MEAN_MOTION": 14.29563665, "ECCENTRICITY": 0.00310477, "INCLINATION": 99.3898, "RA_OF_ASC_NODE": 343.8484, "ARG_OF_PERICENTER": 68.7641, "MEAN_ANOMALY": 347.6072, "EPHEMERIS_TYPE": 0, "CLASSIFICATION_TYPE": "U", "NORAD_CAT_ID": 30945, "ELEMENT_SET_NO": 999, "REV_AT_EPOCH": 96284, "BSTAR": 0.0019395565, "MEAN_MOTION_DOT": 4.94e-05, "MEAN_MOTION_DDOT": 0}, "tle": {"line1": "1 30945U 99025BAK 25336.01235536  .00004940  00000+0  19396-2 0  9996", "line2": "2 30945  99.3898 343.8484 0031047  68.7641 347.6072 14.29563665962845"}}, "geometry": {"type": "Point", "coordinates": [-81.39278705922894, 79.72148189707003]}}, {"type": "Feature", "properties": {"norad_id": 30946, "name": "FENGYUN 1C DEB", "group": "fengyun-1c-debris", "lat": 80.14374969859843, "lon": 24.680866639359248, "alt_km": 770.8431278277621, "timestamp": "2025-12-02T13:52:17.541823+00:00", "meta": {"OBJECT_NAME": "FENGYUN 1C DEB", "OBJECT_ID": "1999-025BAL", "EPOCH": "2025-11-28T06:54:24.657696", "MEAN_MOTION": 14.4800194, "ECCENTRICITY": 0.00890266, "INCLINATION": 99.039, "RA_OF_ASC_NODE": 86.4765, "ARG_OF_PERICENTER": 236.0797, "MEAN_ANOMALY": 179.3207, "EPHEMERIS_TYPE": 0, "CLASSIFICATION_TYPE": "U", "NORAD_CAT_ID": 30946, "ELEMENT_SET_NO": 999, "REV_AT_EPOCH": 98142, "BSTAR": 0.00084294618, "MEAN_MOTION_DOT": 3.237e-05, "MEAN_MOTION_DDOT": 0}, "tle": {"line1": "1 30946U 99025BAL 25332.28778539  .00003237  00000+0  84295-3 0  9996", "line2": "2 30946  99.0390  86.4765 0089026 236.0797 179.3207 14.48001940981423"}}, "geometry": {"type": "Point", "coordinates": [24.680866639359248, 80.14374969859843]}}, {"type": "Feature", "properties": {"norad_id": 30947, "name": "FENGYUN 1C DEB", "group": "fengyun-1c-debris", "lat": 12.181427331278936, "lon": 47.873510691034845, "alt_km": 789.850505081733, "timestamp": "2025-12-02T13:52:17.541833+00:00", "meta": {"OBJECT_NAME": "FENGYUN 1C DEB", "OBJECT_ID": "1999-025BAM", "EPOCH": "2025-12-01T03:41:10.986432", "MEAN_MOTION": 14.3800177, "ECCENTRICITY": 0.00958788, "INCLINATION": 98.8087, "RA_OF_ASC_NODE": 224.4953, "ARG_OF_PERICENTER": 282.3771, "MEAN_ANOMALY": 76.6697, "EPHEMERIS_TYPE": 0, "CLASSIFICATION_TYPE": "U", "NORAD_CAT_ID": 30947, "ELEMENT_SET_NO": 999, "REV_AT_EPOCH": 98326, "BSTAR": 0.00036480125, "MEAN_MOTION_DOT": 1.114e-05, "MEAN_MOTION_DDOT": 0}, "tle": {"line1": "1 30947U 99025BAM 25335.15359938  .00001114  00000+0  36480-3 0  9999", "line2": "2 30947  98.8087 224.4953 0095878 282.3771  76.6697 14.38001770983261"}}, "geometry": {"type": "Point", "coordinates": [47.873510691034845, 12.181427331278936]}}, {"type": "Feature", "properties": {"norad_id": 30949, "name": "FENGYUN 1C DEB", "group": "fengyun-1c-debris", "lat": -69.57174775306626, "lon": 126.93216893389051, "alt_km": 848.2909976285655, "timestamp": "2025-12-02T13:52:17.541843+00:00", "meta": {"OBJECT_NAME": "FENGYUN 1C DEB", "OBJECT_ID": "1999-025BAP", "EPOCH": "2025-12-01T20:15:08.373888", "MEAN_MOTION": 14.1402851, "ECCENTRICITY": 0.01168865, "INCLINATION": 98.6974, "RA_OF_ASC_NODE": 330.4839, "ARG_OF_PERICENTER": 341.0642, "MEAN_ANOMALY": 136.6625, "EPHEMERIS_TYPE": 0, "CLASSIFICATION_TYPE": "U", "NORAD_CAT_ID": 30949, "ELEMENT_SET_NO": 999, "REV_AT_EPOCH": 96362, "BSTAR": 0.00027588479, "MEAN_MOTION_DOT": 5.16e-06, "MEAN_MOTION_DDOT": 0}, "tle": {"line1": "1 30949U 99025BAP 25335.84384692  .00000516  00000+0  27588-3 0  9996", "line2": "2 30949  98.6974 330.4839 0116886 341.0642 136.6625 14.14028510963621"}}, "geometry": {"type": "Point", "coordinates": [126.93216893389051, -69.57174775306626]}}, {"type": "Feature", "properties": {"norad_id": 30954, "name": "FENGYUN 1C DEB", "group": "fengyun-1c-debris", "lat": -80.40679068972912, "lon": -168.2026886760295, "alt_km": 789.5834450666771, "timestamp": "2025-12-02T13:52:17.541853+00:00", "meta": {"OBJECT_NAME": "FENGYUN 1C DEB", "OBJECT_ID": "1999-025BAU", "EPOCH": "2025-12-02T06:06:00.662112", "MEAN_MOTION": 14.14838551, "ECCENTRICITY": 0.01284797, "INCLINATION": 98.7125, "RA_OF_ASC_NODE": 76.6114, "ARG_OF_PERICENTER": 217.1092, "MEAN_ANOMALY": 199.3871, "EPHEMERIS_TYPE": 0, "CLASSIFICATION_TYPE": "U", "NORAD_CAT_ID": 30954, "ELEMENT_SET_NO": 999, "REV_AT_EPOCH": 96239, "BSTAR": 0.0016392865, "MEAN_MOTION_DOT": 3.383e-05, "MEAN_MOTION_DDOT": 0}, "tle": {"line1": "1 30954U 99025BAU 25336.25417433  .00003383  00000+0  16393-2 0  9994", "line2": "2 30954  98.7125  76.6114 0128479 217.1092 199.3871 14.14838551962390"}}, "geometry": {"type": "Point", "coordinates": [-168.2026886760295, -80.40679068972912]}}]}